CCSDS_OMM_VERS = 2.0
CREATION_DATE  = 
ORIGINATOR     = 

OBJECT_NAME    = STARLINK-37163
OBJECT_ID      = 2026-055C
CENTER_NAME    = EARTH
REF_FRAME      = TEME
TIME_SYSTEM    = UTC
MEAN_ELEMENT_THEORY = SGP/SGP4

EPOCH          = 2026-03-27T20:00:01.999008
MEAN_MOTION    = 15.97479717
ECCENTRICITY   = .0000792
INCLINATION    = 53.1583
RA_OF_ASC_NODE = 246.7973
ARG_OF_PERICENTER = 57.0651
MEAN_ANOMALY   = 2.6845

EPHEMERIS_TYPE = 0
CLASSIFICATION_TYPE = U
NORAD_CAT_ID   = 68264
ELEMENT_SET_NO = 999
REV_AT_EPOCH   = 255
BSTAR          = -.2014E-2
MEAN_MOTION_DOT = -.919786E-2
MEAN_MOTION_DDOT = .27805E-3

CCSDS_OMM_VERS = 2.0
CREATION_DATE  = 
ORIGINATOR     = 

OBJECT_NAME    = STARLINK-37133
OBJECT_ID      = 2026-055D
CENTER_NAME    = EARTH
REF_FRAME      = TEME
TIME_SYSTEM    = UTC
MEAN_ELEMENT_THEORY = SGP/SGP4

EPOCH          = 2026-03-27T20:00:01.999008
MEAN_MOTION    = 15.97360162
ECCENTRICITY   = .0000803
INCLINATION    = 53.1583
RA_OF_ASC_NODE = 246.8032
ARG_OF_PERICENTER = 58.8980
MEAN_ANOMALY   = 358.1969

EPHEMERIS_TYPE = 0
CLASSIFICATION_TYPE = U
NORAD_CAT_ID   = 68265
ELEMENT_SET_NO = 999
REV_AT_EPOCH   = 255
BSTAR          = -.20246E-2
MEAN_MOTION_DOT = -.918528E-2
MEAN_MOTION_DDOT = .27702E-3

CCSDS_OMM_VERS = 2.0
CREATION_DATE  = 
ORIGINATOR     = 

OBJECT_NAME    = STARLINK-37042
OBJECT_ID      = 2026-055E
CENTER_NAME    = EARTH
REF_FRAME      = TEME
TIME_SYSTEM    = UTC
MEAN_ELEMENT_THEORY = SGP/SGP4

EPOCH          = 2026-03-27T20:00:01.999008
MEAN_MOTION    = 15.97632100
ECCENTRICITY   = .0000848
INCLINATION    = 53.1582
RA_OF_ASC_NODE = 246.7906
ARG_OF_PERICENTER = 60.1700
MEAN_ANOMALY   = 3.0600

EPHEMERIS_TYPE = 0
CLASSIFICATION_TYPE = U
NORAD_CAT_ID   = 68266
ELEMENT_SET_NO = 999
REV_AT_EPOCH   = 255
BSTAR          = -.20112E-2
MEAN_MOTION_DOT = -.926251E-2
MEAN_MOTION_DDOT = .28203E-3

CCSDS_OMM_VERS = 2.0
CREATION_DATE  = 
ORIGINATOR     = 

OBJECT_NAME    = STARLINK-37103
OBJECT_ID      = 2026-055F
CENTER_NAME    = EARTH
REF_FRAME      = TEME
TIME_SYSTEM    = UTC
MEAN_ELEMENT_THEORY = SGP/SGP4

EPOCH          = 2026-03-27T20:00:01.999008
MEAN_MOTION    = 15.97766463
ECCENTRICITY   = .0000839
INCLINATION    = 53.1584
RA_OF_ASC_NODE = 246.7841
ARG_OF_PERICENTER = 60.8053
MEAN_ANOMALY   = 5.4046

EPHEMERIS_TYPE = 0
CLASSIFICATION_TYPE = U
NORAD_CAT_ID   = 68267
ELEMENT_SET_NO = 999
REV_AT_EPOCH   = 255
BSTAR          = -.19959E-2
MEAN_MOTION_DOT = -.926125E-2
MEAN_MOTION_DDOT = .28236E-3

CCSDS_OMM_VERS = 2.0
CREATION_DATE  = 
ORIGINATOR     = 

OBJECT_NAME    = STARLINK-36999
OBJECT_ID      = 2026-055G
CENTER_NAME    = EARTH
REF_FRAME      = TEME
TIME_SYSTEM    = UTC
MEAN_ELEMENT_THEORY = SGP/SGP4

EPOCH          = 2026-03-27T20:00:01.999008
MEAN_MOTION    = 15.97890093
ECCENTRICITY   = .0000797
INCLINATION    = 53.1584
RA_OF_ASC_NODE = 246.7787
ARG_OF_PERICENTER = 56.0211
MEAN_ANOMALY   = 12.8711

EPHEMERIS_TYPE = 0
CLASSIFICATION_TYPE = U
NORAD_CAT_ID   = 68268
ELEMENT_SET_NO = 999
REV_AT_EPOCH   = 255
BSTAR          = -.19824E-2
MEAN_MOTION_DOT = -.926206E-2
MEAN_MOTION_DDOT = .28277E-3

CCSDS_OMM_VERS = 2.0
CREATION_DATE  = 
ORIGINATOR     = 

OBJECT_NAME    = STARLINK-36962
OBJECT_ID      = 2026-055H
CENTER_NAME    = EARTH
REF_FRAME      = TEME
TIME_SYSTEM    = UTC
MEAN_ELEMENT_THEORY = SGP/SGP4

EPOCH          = 2026-03-27T20:00:01.999008
MEAN_MOTION    = 15.98019104
ECCENTRICITY   = .0000809
INCLINATION    = 53.1584
RA_OF_ASC_NODE = 246.7727
ARG_OF_PERICENTER = 59.2090
MEAN_ANOMALY   = 12.5358

EPHEMERIS_TYPE = 0
CLASSIFICATION_TYPE = U
NORAD_CAT_ID   = 68269
ELEMENT_SET_NO = 999
REV_AT_EPOCH   = 255
BSTAR          = -.19663E-2
MEAN_MOTION_DOT = -.925337E-2
MEAN_MOTION_DDOT = .28268E-3

CCSDS_OMM_VERS = 2.0
CREATION_DATE  = 
ORIGINATOR     = 

OBJECT_NAME    = STARLINK-37028
OBJECT_ID      = 2026-055J
CENTER_NAME    = EARTH
REF_FRAME      = TEME
TIME_SYSTEM    = UTC
MEAN_ELEMENT_THEORY = SGP/SGP4

EPOCH          = 2026-03-27T20:00:01.999008
MEAN_MOTION    = 15.98371872
ECCENTRICITY   = .0000792
INCLINATION    = 53.1584
RA_OF_ASC_NODE = 246.7534
ARG_OF_PERICENTER = 63.8641
MEAN_ANOMALY   = 16.9267

EPHEMERIS_TYPE = 0
CLASSIFICATION_TYPE = U
NORAD_CAT_ID   = 68270
ELEMENT_SET_NO = 999
REV_AT_EPOCH   = 255
BSTAR          = -.20873E-2
MEAN_MOTION_DOT = -.1001031E-1
MEAN_MOTION_DDOT = .32704E-3

CCSDS_OMM_VERS = 2.0
CREATION_DATE  = 
ORIGINATOR     = 

OBJECT_NAME    = STARLINK-37029
OBJECT_ID      = 2026-055K
CENTER_NAME    = EARTH
REF_FRAME      = TEME
TIME_SYSTEM    = UTC
MEAN_ELEMENT_THEORY = SGP/SGP4

EPOCH          = 2026-03-27T20:00:01.999008
MEAN_MOTION    = 15.98222830
ECCENTRICITY   = .000081
INCLINATION    = 53.1583
RA_OF_ASC_NODE = 246.7600
ARG_OF_PERICENTER = 61.5930
MEAN_ANOMALY   = 16.2609

EPHEMERIS_TYPE = 0
CLASSIFICATION_TYPE = U
NORAD_CAT_ID   = 68271
ELEMENT_SET_NO = 999
REV_AT_EPOCH   = 255
BSTAR          = -.20331E-2
MEAN_MOTION_DOT = -.967265E-2
MEAN_MOTION_DDOT = .30689E-3

CCSDS_OMM_VERS = 2.0
CREATION_DATE  = 
ORIGINATOR     = 

OBJECT_NAME    = STARLINK-36974
OBJECT_ID      = 2026-055L
CENTER_NAME    = EARTH
REF_FRAME      = TEME
TIME_SYSTEM    = UTC
MEAN_ELEMENT_THEORY = SGP/SGP4

EPOCH          = 2026-03-27T20:00:01.999008
MEAN_MOTION    = 15.98561084
ECCENTRICITY   = .0000679
INCLINATION    = 53.1582
RA_OF_ASC_NODE = 246.7460
ARG_OF_PERICENTER = 68.0223
MEAN_ANOMALY   = 16.4487

EPHEMERIS_TYPE = 0
CLASSIFICATION_TYPE = U
NORAD_CAT_ID   = 68272
ELEMENT_SET_NO = 999
REV_AT_EPOCH   = 255
BSTAR          = -.22216E-2
MEAN_MOTION_DOT = -.1075956E-1
MEAN_MOTION_DDOT = .37346E-3

CCSDS_OMM_VERS = 2.0
CREATION_DATE  = 
ORIGINATOR     = 

OBJECT_NAME    = STARLINK-37019
OBJECT_ID      = 2026-055M
CENTER_NAME    = EARTH
REF_FRAME      = TEME
TIME_SYSTEM    = UTC
MEAN_ELEMENT_THEORY = SGP/SGP4

EPOCH          = 2026-03-27T20:00:01.999008
MEAN_MOTION    = 15.98683174
ECCENTRICITY   = .0000873
INCLINATION    = 53.1582
RA_OF_ASC_NODE = 246.7403
ARG_OF_PERICENTER = 57.4107
MEAN_ANOMALY   = 29.5836

EPHEMERIS_TYPE = 0
CLASSIFICATION_TYPE = U
NORAD_CAT_ID   = 68273
ELEMENT_SET_NO = 999
REV_AT_EPOCH   = 255
BSTAR          = -.2237E-2
MEAN_MOTION_DOT = -.1090702E-1
MEAN_MOTION_DDOT = .38328E-3

CCSDS_OMM_VERS = 2.0
CREATION_DATE  = 
ORIGINATOR     = 

OBJECT_NAME    = STARLINK-37129
OBJECT_ID      = 2026-055N
CENTER_NAME    = EARTH
REF_FRAME      = TEME
TIME_SYSTEM    = UTC
MEAN_ELEMENT_THEORY = SGP/SGP4

EPOCH          = 2026-03-27T20:00:01.999008
MEAN_MOTION    = 15.98826079
ECCENTRICITY   = .0000903
INCLINATION    = 53.1582
RA_OF_ASC_NODE = 246.7344
ARG_OF_PERICENTER = 60.7020
MEAN_ANOMALY   = 29.2348

EPHEMERIS_TYPE = 0
CLASSIFICATION_TYPE = U
NORAD_CAT_ID   = 68274
ELEMENT_SET_NO = 999
REV_AT_EPOCH   = 255
BSTAR          = -.23094E-2
MEAN_MOTION_DOT = -.113463E-1
MEAN_MOTION_DDOT = .41237E-3

CCSDS_OMM_VERS = 2.0
CREATION_DATE  = 
ORIGINATOR     = 

OBJECT_NAME    = STARLINK-37123
OBJECT_ID      = 2026-055P
CENTER_NAME    = EARTH
REF_FRAME      = TEME
TIME_SYSTEM    = UTC
MEAN_ELEMENT_THEORY = SGP/SGP4

EPOCH          = 2026-03-27T20:00:01.999008
MEAN_MOTION    = 15.98949728
ECCENTRICITY   = .0000778
INCLINATION    = 53.1584
RA_OF_ASC_NODE = 246.7295
ARG_OF_PERICENTER = 65.8993
MEAN_ANOMALY   = 26.4582

EPHEMERIS_TYPE = 0
CLASSIFICATION_TYPE = U
NORAD_CAT_ID   = 68275
ELEMENT_SET_NO = 999
REV_AT_EPOCH   = 255
BSTAR          = -.23624E-2
MEAN_MOTION_DOT = -.116834E-1
MEAN_MOTION_DDOT = .43546E-3

